{
  "norad_id": 49299,
  "name": "ONEWEB-0373",
  "history": [
    {
      "epoch": "2026-03-28T19:26:53.896992Z",
      "apogee_km": 1182.9994812030327,
      "perigee_km": 1180.5450810558214,
      "latitude_deg": -1.9605421720108836e-05,
      "longitude_deg": 172.54297910448295,
      "height_km": 1184.6357993203474,
      "semi_major_axis_km": 7559.909281129427,
      "eccentricity": 0.00016233,
      "inclination_deg": 87.9141,
      "raan_deg": 290.493,
      "arg_perigee_deg": 88.2767,
      "mean_anomaly_deg": 271.8552,
      "mean_motion_rev_day": 13.20772099
    },
    {
      "epoch": "2026-03-29T02:43:15.409920Z",
      "apogee_km": 1182.9895531094244,
      "perigee_km": 1180.552238803768,
      "latitude_deg": 9.193438667606854e-06,
      "longitude_deg": 63.09416611811006,
      "height_km": 1184.63627175554,
      "semi_major_axis_km": 7559.907895956596,
      "eccentricity": 0.0001612,
      "inclination_deg": 87.9142,
      "raan_deg": 290.4325,
      "arg_perigee_deg": 88.3512,
      "mean_anomaly_deg": 271.7806,
      "mean_motion_rev_day": 13.20772462
    }
  ]
}